{
"type": "FeatureCollection",
"name": "fars",
"crs": { "type": "name", "properties": { "name": "urn:ogc:def:crs:OGC:1.3:CRS84" } },
"features": [
{ "type": "Feature", "properties": { "Id": 0, "Base": 250000.0, "Name_Ostan": "فارس", "مرکز": "شیراز", "area": 122238.584846 }, "geometry": { "type": "MultiPolygon", "coordinates": [ [ [ [ 53.929162568453364, 30.376067376095477 ], [ 53.932630109388128, 30.361292636461258 ], [ 53.934439261180046, 30.350588488358824 ], [ 53.933986973231981, 30.341995017347017 ], [ 53.930971720245509, 30.32993400540073 ], [ 53.926054249987999, 30.318122494217562 ], [ 53.921832895806801, 30.309227497906988 ], [ 53.918365354872208, 30.304704618427195 ], [ 53.912334848899036, 30.298523349804725 ], [ 53.906756630873758, 30.291739030584893 ], [ 53.901329175498006, 30.282844034274319 ], [ 53.897107821316752, 30.273496750016079 ], [ 53.894653531191864, 30.265618461604731 ], [ 53.893558236566719, 30.262102558221898 ], [ 53.891146034177382, 30.253659849859446 ], [ 53.887980018541612, 30.241900363211698 ], [ 53.884663240256373, 30.234512993394674 ], [ 53.874863668049841, 30.217476814020472 ], [ 53.868380874128604, 30.208280292411303 ], [ 53.866430020674898, 30.204791583791746 ], [ 53.86681073443583, 30.20117480306277 ], [ 53.870617872045102, 30.194321955366036 ], [ 53.876138221578685, 30.186898037027788 ], [ 53.882229641753554, 30.178903048048312 ], [ 53.887749991287137, 30.165197352654616 ], [ 53.890414987613667, 30.159677003121203 ], [ 53.894590148525253, 30.146618521121127 ], [ 53.897635858612773, 30.134054967010286 ], [ 53.901252639341521, 30.126440691791572 ], [ 53.91033872223386, 30.112251458195487 ], [ 53.913538769667298, 30.106704709310975 ], [ 53.917123041453692, 30.100491971547967 ], [ 53.923605835374929, 30.090692399341435 ], [ 53.935214559373151, 30.077274523551068 ], [ 53.942752691839644, 30.066871900747401 ], [ 53.951667770800952, 30.058636110314126 ], [ 53.961316580357959, 30.050796452548809 ], [ 53.968100899577792, 30.044916709224992 ], [ 53.980011148874837, 30.035569424966525 ], [ 53.991770635522585, 30.026825191305477 ], [ 53.997917305348494, 30.023322196223546 ], [ 54.003133721544373, 30.020349353888207 ], [ 54.041261683679295, 30.000039060951337 ], [ 54.044973816141692, 29.995691679502556 ], [ 54.052112199159183, 29.989838205428214 ], [ 54.063390844326875, 29.980415539845126 ], [ 54.070315905059886, 29.972511330908162 ], [ 54.076312146794692, 29.965372947890671 ], [ 54.086591418339935, 29.955759925427117 ], [ 54.094396050438945, 29.948526363969393 ], [ 54.099154972450606, 29.941673516272601 ], [ 54.101924070196162, 29.935843446240199 ], [ 54.102066837856455, 29.929561669184864 ], [ 54.102780676158147, 29.923565427450228 ], [ 54.105636029365201, 29.916712579753266 ], [ 54.106349867666893, 29.911287408660144 ], [ 54.103351746799603, 29.902721349039041 ], [ 54.096278798959759, 29.884915334593927 ], [ 54.094642919518208, 29.879561547330809 ], [ 54.092263458512377, 29.868259107553115 ], [ 54.090181430132475, 29.856064369898206 ], [ 54.090181430132475, 29.8474388237521 ], [ 54.090014124280458, 29.840710725006772 ], [ 54.090014124280458, 29.832680044112237 ], [ 54.090687719042137, 29.828264256230057 ], [ 54.091352571096252, 29.823905781653252 ], [ 54.094921762604997, 29.813049490814137 ], [ 54.098937103052322, 29.805762391483597 ], [ 54.103993457689739, 29.797136845337661 ], [ 54.110685691768595, 29.789403597068542 ], [ 54.114388656783035, 29.786123603894225 ], [ 54.11606360200733, 29.784639979587268 ], [ 54.12148877310068, 29.779309986934152 ], [ 54.129483762080156, 29.771029462633976 ], [ 54.136431788217351, 29.764652507138237 ], [ 54.143466813397367, 29.755701272266833 ], [ 54.148523168034728, 29.748711605562391 ], [ 54.153282090046389, 29.739937343103406 ], [ 54.161312770941095, 29.725809293381303 ], [ 54.166963990829913, 29.716588881983682 ], [ 54.170636292315578, 29.709340448894579 ], [ 54.177774675333069, 29.692493864973244 ], [ 54.184770290690096, 29.675932816372722 ], [ 54.19005269412321, 29.668508898034474 ], [ 54.198475986083849, 29.654945970301412 ], [ 54.207424686108027, 29.64273514172163 ], [ 54.210398135274716, 29.639468018563321 ], [ 54.219636460703839, 29.629317265931263 ], [ 54.228983744962079, 29.615748627491598 ], [ 54.237275690675233, 29.603687615545311 ], [ 54.240441706311231, 29.598712448117396 ], [ 54.243131449032205, 29.596268836843024 ], [ 54.244325680703639, 29.595809516969496 ], [ 54.245091363473477, 29.595515023596306 ], [ 54.255192460978549, 29.596721124790918 ], [ 54.263484406691703, 29.599133327180198 ], [ 54.274640842742087, 29.600640953673519 ], [ 54.29378769920686, 29.602450105465437 ], [ 54.31172845447702, 29.604108494608113 ], [ 54.325144664644768, 29.605964045889607 ], [ 54.334216359729453, 29.606856343766822 ], [ 54.349831572580229, 29.609979386336931 ], [ 54.36410833861521, 29.613846010471434 ], [ 54.380172968197712, 29.618357183003127 ], [ 54.399319824662484, 29.622729299833679 ], [ 54.406254906531615, 29.625292264872257 ], [ 54.416657529335282, 29.627855229910836 ], [ 54.434250869057962, 29.631727036583641 ], [ 54.459383925932059, 29.637675689098216 ], [ 54.472768394089826, 29.641096164294083 ], [ 54.477973465040122, 29.641988462171298 ], [ 54.480865169112406, 29.642048802705801 ], [ 54.483532480815086, 29.642104460895325 ], [ 54.494002109240625, 29.640010535210024 ], [ 54.518177433059918, 29.634490185676668 ], [ 54.53549990918242, 29.63011197742594 ], [ 54.551680244022009, 29.627637337979877 ], [ 54.562535117777259, 29.626371044915345 ], [ 54.567103682908396, 29.621612122903684 ], [ 54.573575816844425, 29.618185699055402 ], [ 54.589375437923024, 29.613426777043742 ], [ 54.604413631479929, 29.611142494478145 ], [ 54.624972174570246, 29.609429282553776 ], [ 54.638612300739112, 29.609404149053205 ], [ 54.647183396096807, 29.609388355824592 ], [ 54.655475341809961, 29.60953911847389 ], [ 54.670250081444181, 29.611046744967211 ], [ 54.679295840404052, 29.612705134109888 ], [ 54.687738548766504, 29.614815811200401 ], [ 54.702965576348618, 29.615569624447062 ], [ 54.717137265385645, 29.614514285901805 ], [ 54.728444464085499, 29.613458947356548 ], [ 54.748097841173376, 29.611492313317285 ], [ 54.768846741144387, 29.608827316990698 ], [ 54.787121001669107, 29.603878038098742 ], [ 54.79492563376823, 29.601974469293964 ], [ 54.810725254846886, 29.594360194075421 ], [ 54.825192377762392, 29.586365205095774 ], [ 54.839849857558306, 29.574753435387322 ], [ 54.854412158913988, 29.560105473435328 ], [ 54.870592493753634, 29.540308357866934 ], [ 54.886582471712757, 29.520891956059359 ], [ 54.899146025823597, 29.505853762502454 ], [ 54.911452598145672, 29.493089540513552 ], [ 54.923445081615057, 29.479383845120026 ], [ 54.935056851323679, 29.467391361650641 ], [ 54.945716836629686, 29.454447093778811 ], [ 54.953711825609389, 29.442644967189949 ], [ 54.968141892385347, 29.422983258815805 ], [ 54.977489176643758, 29.407906993882818 ], [ 54.983519682616929, 29.39946428552031 ], [ 54.995580694563273, 29.386498697678007 ], [ 55.010377134881935, 29.372638813211267 ], [ 55.017610696339659, 29.367499177438617 ], [ 55.033791031179305, 29.358933117817685 ], [ 55.05149422106274, 29.350747771957572 ], [ 55.067293842141396, 29.341039571053784 ], [ 55.079095968730314, 29.332473511432852 ], [ 55.093753448526229, 29.322574953648598 ], [ 55.110124140246342, 29.311343897701079 ], [ 55.124806651972051, 29.298170059431584 ], [ 55.139430628956973, 29.282339981251937 ], [ 55.154506893889959, 29.26590685247487 ], [ 55.176650005724582, 29.240108374571776 ], [ 55.173413938756767, 29.22868696174362 ], [ 55.171052323708352, 29.222048265537353 ], [ 55.1688215790154, 29.215802180397247 ], [ 55.165698536445234, 29.206730485312505 ], [ 55.162129344936488, 29.197212641289184 ], [ 55.159842485967488, 29.192709307807604 ], [ 55.152153590851697, 29.182909735601129 ], [ 55.141901730697271, 29.174316264589322 ], [ 55.127277753712349, 29.164968980330912 ], [ 55.110392336987388, 29.151400341891247 ], [ 55.098331325041102, 29.139490092594201 ], [ 55.087595768053518, 29.127536013625559 ], [ 55.073913867269994, 29.108946474517495 ], [ 55.063854391977429, 29.093138727629139 ], [ 55.063503725369515, 29.09258768010244 ], [ 55.055473044474809, 29.07872731974345 ], [ 55.052058517931357, 29.072834007723543 ], [ 55.048774861743311, 29.06426794810244 ], [ 55.046205043857015, 29.050562252708914 ], [ 55.044777367253573, 29.039711910522385 ], [ 55.044777367253573, 29.032002456863438 ], [ 55.047174674216819, 29.0143381675623 ], [ 55.048661882972965, 28.999839427864742 ], [ 55.048795924708202, 28.987360184271949 ], [ 55.063548582944406, 28.973321364337494 ], [ 55.077770906911439, 28.963414811564348 ], [ 55.091791833299169, 28.954369052604534 ], [ 55.116818433087815, 28.938840499723653 ], [ 55.136789457356258, 28.927776953408454 ], [ 55.15865075534731, 28.919894988826627 ], [ 55.176050563952458, 28.915730932066424 ], [ 55.193301656244728, 28.910674577429063 ], [ 55.204009230770964, 28.905618222791645 ], [ 55.219449871701102, 28.89357065233645 ], [ 55.235883000477941, 28.87638371031295 ], [ 55.248245537723051, 28.859347530938692 ], [ 55.248815846936964, 28.851773306807615 ], [ 55.247308220443585, 28.845742800834444 ], [ 55.24534830600237, 28.825540605824244 ], [ 55.244443730106411, 28.809861290294066 ], [ 55.244467715073313, 28.791418906572346 ], [ 55.244166189774717, 28.771216711562317 ], [ 55.245070765670675, 28.760663326109182 ], [ 55.247181442761189, 28.747999263565646 ], [ 55.250542832924054, 28.728518634281897 ], [ 55.251780152646973, 28.724521139791989 ], [ 55.254730684294259, 28.721475429704469 ], [ 55.261773888871517, 28.717763470535488 ], [ 55.275479584265042, 28.711576871920386 ], [ 55.286805818652738, 28.704533667343128 ], [ 55.297960372073589, 28.696770506393818 ], [ 55.312879592580259, 28.687276456980555 ], [ 55.325086227540169, 28.677853791397467 ], [ 55.338493168385128, 28.668645277304847 ], [ 55.346488157364774, 28.662839392450735 ], [ 55.350485651854513, 28.659793682363215 ], [ 55.35781439175247, 28.65351190530788 ], [ 55.362478135323897, 28.649324053937676 ], [ 55.371710444026519, 28.638378533310743 ], [ 55.382544742877656, 28.625006683506797 ], [ 55.393966155705584, 28.614227725150499 ], [ 55.404887881722345, 28.603805685944792 ], [ 55.415452688588289, 28.595096858663624 ], [ 55.421714537280309, 28.590201058472417 ], [ 55.425729877727633, 28.586929299589428 ], [ 55.430934948677873, 28.581872944952011 ], [ 55.435545154376712, 28.576073008750313 ], [ 55.439857927449737, 28.570719221487195 ], [ 55.444319416835697, 28.564919285285498 ], [ 55.450565501975973, 28.553021980256347 ], [ 55.452350097730346, 28.547073327741771 ], [ 55.450320120059757, 28.533265018092266 ], [ 55.447791942741105, 28.525234337197617 ], [ 55.444074034919481, 28.51973183362162 ], [ 55.441099708662193, 28.51735237261579 ], [ 55.435299772460496, 28.513634464794166 ], [ 55.4300947015102, 28.508578110156805 ], [ 55.426376793688632, 28.503521755519387 ], [ 55.423253751118466, 28.497126954066232 ], [ 55.418346112793927, 28.485322844593043 ], [ 55.414919688945645, 28.472568933601906 ], [ 55.41301612014081, 28.462289662056662 ], [ 55.411683621977659, 28.455246457479404 ], [ 55.41035112381428, 28.446680397858302 ], [ 55.409387442107061, 28.436068001772526 ], [ 55.40795976550362, 28.420125613033406 ], [ 55.407483873302397, 28.408942146305947 ], [ 55.406770035000704, 28.397520733478018 ], [ 55.405342358397093, 28.380864506437206 ], [ 55.406095061228541, 28.357533891274898 ], [ 55.408188986913842, 28.338307846347789 ], [ 55.409902198837983, 28.327838217922249 ], [ 55.409711841957517, 28.314132522528723 ], [ 55.409627645108003, 28.31096110786325 ], [ 55.409140771316061, 28.292622195036017 ], [ 55.407808273152853, 28.280439354686109 ], [ 55.405666758247548, 28.269823785985409 ], [ 55.402240334399266, 28.251739882340985 ], [ 55.402621048160029, 28.236701688784308 ], [ 55.403572832562418, 28.216904573215743 ], [ 55.404037779243083, 28.202910272996803 ], [ 55.402680915399003, 28.189492397206436 ], [ 55.401625576853746, 28.176979097312028 ], [ 55.400443841339722, 28.163731781286742 ], [ 55.398920986296048, 28.155927149187562 ], [ 55.399301700056981, 28.148503230849371 ], [ 55.398540272535058, 28.140888955630658 ], [ 55.398920986296048, 28.134036107933866 ], [ 55.39968241381797, 28.129086829041739 ], [ 55.400634198220189, 28.122424338225471 ], [ 55.401023744540339, 28.116485393911717 ], [ 55.402229845735121, 28.101258366329603 ], [ 55.403285184280378, 28.086483626695156 ], [ 55.403586709579145, 28.072764225606193 ], [ 55.402024641017874, 28.060282715310848 ], [ 55.400121072213267, 28.046196306156332 ], [ 55.39783678964767, 28.037630246535457 ], [ 55.395939891045543, 28.027987678641239 ], [ 55.395552507082073, 28.026018476827005 ], [ 55.393648938277465, 28.020307770412956 ], [ 55.39212608323362, 28.010599569509168 ], [ 55.391765382097105, 28.000865343788746 ], [ 55.389459082029362, 27.997668782530354 ], [ 55.415239495064668, 27.98244175494807 ], [ 55.442979822541361, 27.970380743001726 ], [ 55.454890071838406, 27.964500999677853 ], [ 55.461372865759415, 27.959978120197889 ], [ 55.475846080095096, 27.947163295004884 ], [ 55.488510142638745, 27.933745419214688 ], [ 55.497081025868738, 27.926538085589641 ], [ 55.506909703268889, 27.918665485950271 ], [ 55.50969367264571, 27.914453839969838 ], [ 55.512859347225572, 27.910005239331042 ], [ 55.515381575891695, 27.90653122626253 ], [ 55.518570053639507, 27.901629536590633 ], [ 55.519759784142423, 27.899963913886495 ], [ 55.521663352947201, 27.897156149899672 ], [ 55.523593492399755, 27.894314676881891 ], [ 55.525110398791014, 27.892143418713999 ], [ 55.527222170433504, 27.889109605931651 ], [ 55.528887793137642, 27.88667065840059 ], [ 55.532101354370241, 27.882070961987893 ], [ 55.535128028769691, 27.877616610985001 ], [ 55.537793025096221, 27.873733330623566 ], [ 55.539440563896733, 27.871555806541778 ], [ 55.541671308589514, 27.868403020709025 ], [ 55.544645634846802, 27.864149734161174 ], [ 55.547976880255021, 27.859004149735938 ], [ 55.551486585238763, 27.854334457511925 ], [ 55.555351385119764, 27.848597973603773 ], [ 55.558706425137814, 27.843815256982111 ], [ 55.56403641779093, 27.836260468288629 ], [ 55.567498533554442, 27.831156524431037 ], [ 55.572000949669757, 27.824734359176318 ], [ 55.573595188543663, 27.82247387122078 ], [ 55.574404205285589, 27.821236551497805 ], [ 55.575355989687978, 27.819501924424515 ], [ 55.576474336360718, 27.818098042431131 ], [ 55.57752129920334, 27.81671795504775 ], [ 55.578306521335264, 27.815552019154836 ], [ 55.578925181196723, 27.814552645532387 ], [ 55.579567635668241, 27.813529477299937 ], [ 55.580239833402345, 27.812110723675119 ], [ 55.580745468866155, 27.810950736434847 ], [ 55.581132131279503, 27.809761005931932 ], [ 55.581489050430491, 27.807619491026628 ], [ 55.581756739793605, 27.805745665484608 ], [ 55.58187571284401, 27.80408004278047 ], [ 55.581756739793605, 27.803485177529012 ], [ 55.581280847592552, 27.802533393126623 ], [ 55.580953671704037, 27.801789811562287 ], [ 55.580210090139929, 27.801224689573417 ], [ 55.57993942645038, 27.800732438577938 ], [ 55.579463534249214, 27.799971011056016 ], [ 55.579059025878223, 27.799614091905028 ], [ 55.578654517507232, 27.799257172754267 ], [ 55.577821706155248, 27.798424361402112 ], [ 55.577036484023324, 27.797615344660187 ], [ 55.575775369690177, 27.796068695006511 ], [ 55.57460943379732, 27.794807580673364 ], [ 55.574014568545863, 27.794188920811905 ], [ 55.572420329671957, 27.792523298107767 ], [ 55.571393195671135, 27.791444609118457 ], [ 55.569430140341296, 27.789362580738327 ], [ 55.562410730374097, 27.782015994882954 ], [ 55.559852809792972, 27.779279614726136 ], [ 55.557581911695479, 27.77696856322433 ], [ 55.555916288991341, 27.774975764631904 ], [ 55.554726558488426, 27.774023980229515 ], [ 55.552049664856895, 27.772477330575782 ], [ 55.546874337169243, 27.768848652541863 ], [ 55.54327540239791, 27.766320475223154 ], [ 55.539676467626521, 27.763911270954736 ], [ 55.534736072055466, 27.760416239314054 ], [ 55.531613029485356, 27.75827472440875 ], [ 55.528103324501785, 27.755865520140333 ], [ 55.524385416680218, 27.753188626508745 ], [ 55.519537314483159, 27.749896604402295 ], [ 55.514803596763329, 27.749894459943619 ], [ 55.511834038539973, 27.748503776317932 ], [ 55.508179186435143, 27.747076099714377 ], [ 55.50429590607348, 27.745591316046784 ], [ 55.501611874058881, 27.744449174763872 ], [ 55.49982071227447, 27.743803707588881 ], [ 55.499035179225928, 27.743689476684494 ], [ 55.49780737734693, 27.743461048428117 ], [ 55.497838438016345, 27.743908858790576 ], [ 55.487095029344687, 27.741047447251788 ], [ 55.480956019949588, 27.736193346799894 ], [ 55.477386828440842, 27.73362352891354 ], [ 55.473246566290698, 27.729626034423802 ], [ 55.47103035534542, 27.724563683544716 ], [ 55.464999849372248, 27.71024123185839 ], [ 55.456406378360498, 27.687325309160258 ], [ 55.446242234656722, 27.661981917451158 ], [ 55.444338665852115, 27.656390184087343 ], [ 55.441959204846285, 27.651393315975156 ], [ 55.435772606231012, 27.645087744309649 ], [ 55.426135789157456, 27.636521684688717 ], [ 55.41673691818437, 27.629145355570529 ], [ 55.402675607536423, 27.618757818549796 ], [ 55.392414181948766, 27.610132272403632 ], [ 55.387163952865137, 27.605767624129214 ], [ 55.380070727981035, 27.599870846815804 ], [ 55.369809302393378, 27.593624761675699 ], [ 55.361035039934393, 27.589311988602617 ], [ 55.348394153340905, 27.583958201339499 ], [ 55.338727593004762, 27.578753130389259 ], [ 55.330696912110056, 27.57354805943902 ], [ 55.322822228679058, 27.567004018191426 ], [ 55.316339434757822, 27.559465885724933 ], [ 55.301112407175538, 27.54092207985758 ], [ 55.282989099656959, 27.520540616255232 ], [ 55.264696993174653, 27.504925403404457 ], [ 55.253097120771258, 27.495556275694014 ], [ 55.241645964680686, 27.490648637369475 ], [ 55.226774333394246, 27.485740999044936 ], [ 55.211208692647745, 27.479405684116784 ], [ 55.204367742256011, 27.474498045792302 ], [ 55.191429423036823, 27.467359662774811 ], [ 55.171947586051544, 27.456205939309939 ], [ 55.151722167501987, 27.443565052716508 ], [ 55.1420597196676, 27.436894844515052 ], [ 55.133164723357083, 27.433276540931047 ], [ 55.120048372865483, 27.432975015632451 ], [ 55.080548558741214, 27.432522727684557 ], [ 55.052338858786584, 27.432897429340528 ], [ 55.022298163588005, 27.433938443530621 ], [ 54.986141111463041, 27.436569332326656 ], [ 54.968954169439485, 27.437624670871912 ], [ 54.937897063677724, 27.439433822663887 ], [ 54.906990720565204, 27.441544499754571 ], [ 54.88814037666782, 27.442327754865289 ], [ 54.868541232254984, 27.443383093410546 ], [ 54.84472073366112, 27.445644533150585 ], [ 54.829041418130771, 27.445946058449181 ], [ 54.800035923185646, 27.447851443575814 ], [ 54.781000235139004, 27.448148876201515 ], [ 54.768061915919816, 27.449041174078729 ], [ 54.747539064744558, 27.452015500336017 ], [ 54.714595427118866, 27.4575358498696 ], [ 54.694179651688842, 27.461676112019632 ], [ 54.673621108598525, 27.465245303528377 ], [ 54.664661314805926, 27.465769546377146 ], [ 54.652600302859582, 27.466071071675913 ], [ 54.630739718706764, 27.466372596974509 ], [ 54.607823796008688, 27.466071071675913 ], [ 54.573525674000052, 27.465800003478137 ], [ 54.551665089847177, 27.465649240828668 ], [ 54.525281626214564, 27.463840089036751 ], [ 54.50553171915243, 27.462633987842196 ], [ 54.496938248140623, 27.460824836050051 ], [ 54.480182702397599, 27.457273109785149 ], [ 54.458321404406377, 27.453257769337824 ], [ 54.44761382988014, 27.452216755147788 ], [ 54.44077287948835, 27.452960336712067 ], [ 54.424562801386116, 27.453257769337824 ], [ 54.407584355667439, 27.45728090236986 ], [ 54.394051171196963, 27.459065498124232 ], [ 54.386237607523583, 27.459610630473605 ], [ 54.368471965384288, 27.460850093878605 ], [ 54.346450624845829, 27.460585378841699 ], [ 54.328359106926314, 27.456665549959041 ], [ 54.311172164902814, 27.4534995343231 ], [ 54.28982782860993, 27.449216504512606 ], [ 54.262583380806859, 27.443703602692096 ], [ 54.242682711095483, 27.438577672614883 ], [ 54.214188570372073, 27.431642590745753 ], [ 54.191574172972764, 27.428024287161861 ], [ 54.173012366482681, 27.425214984456943 ], [ 54.14731418761977, 27.420646419325749 ], [ 54.120854581234937, 27.413032144107035 ], [ 54.0972503280571, 27.405227512007855 ], [ 54.081260350097978, 27.398565021191587 ], [ 54.070133362256797, 27.393944850310163 ], [ 54.048122015454851, 27.384145278103631 ], [ 54.028372108392716, 27.376607145637138 ], [ 53.999122876964748, 27.366057042932823 ], [ 53.985566352461376, 27.360719305034536 ], [ 53.976643373689512, 27.355960383022875 ], [ 53.970992153800694, 27.350606595759757 ], [ 53.966233231789033, 27.340493886484978 ], [ 53.966530664414734, 27.331868340338872 ], [ 53.973669047432224, 27.310453191286399 ], [ 53.982889458829845, 27.29587899262566 ], [ 53.999534361559938, 27.271728502310566 ], [ 54.004985324611368, 27.264874521548393 ], [ 54.015835666798012, 27.251359183035333 ], [ 54.024021012658011, 27.240128127087871 ], [ 54.026495652104074, 27.233275279391137 ], [ 54.026305295223551, 27.225089933530967 ], [ 54.022688514494803, 27.219188870236621 ], [ 54.019147876518048, 27.21507716161841 ], [ 54.014198597625921, 27.210889310248206 ], [ 54.002586827917469, 27.200610038702962 ], [ 53.999866234367744, 27.195650131444154 ], [ 53.979526493592004, 27.175713861966926 ], [ 53.961559088358513, 27.154837232529303 ], [ 53.955528582385341, 27.146545286816149 ], [ 53.945276722230915, 27.132976648376655 ], [ 53.938040115063018, 27.127398430351377 ], [ 53.916747784269944, 27.116027347882721 ], [ 53.904385247024834, 27.108941503364122 ], [ 53.884936865261295, 27.100046507053719 ], [ 53.867900685887093, 27.092659137236524 ], [ 53.854130269154155, 27.082795681261018 ], [ 53.837569220553576, 27.071754982194022 ], [ 53.82348281139906, 27.061666067529245 ], [ 53.813203539853816, 27.05538429047391 ], [ 53.806731405918015, 27.05233858038639 ], [ 53.802162840786821, 27.050244654701316 ], [ 53.788647502273761, 27.050244654701316 ], [ 53.779408650053256, 27.051258899955144 ], [ 53.757101203123625, 27.058099850346707 ], [ 53.731521997310949, 27.06746897805715 ], [ 53.716055500773052, 27.073863779510532 ], [ 53.702958880772087, 27.078720259423335 ], [ 53.687343667921368, 27.082735599870659 ], [ 53.670390008254799, 27.087345805569441 ], [ 53.651205603895278, 27.09269959283256 ], [ 53.631723766910056, 27.100284124788629 ], [ 53.614100203309761, 27.108144531453775 ], [ 53.596762498636963, 27.118094866309548 ], [ 53.581678429071815, 27.125656793386099 ], [ 53.569114874961144, 27.134936691308724 ], [ 53.567547008062604, 27.13626383095135 ], [ 53.560308285481256, 27.142391134045738 ], [ 53.552426320899485, 27.151016680191901 ], [ 53.547816115200646, 27.156519183767898 ], [ 53.539190569054711, 27.16112938946668 ], [ 53.535323944920037, 27.161278105779559 ], [ 53.532349618662749, 27.15904736108655 ], [ 53.521558763001281, 27.143096439936812 ], [ 53.512338351603887, 27.127629943398915 ], [ 53.509215309033721, 27.121830007197161 ], [ 53.504010238083481, 27.111271148983803 ], [ 53.500292330261857, 27.106512226972143 ], [ 53.494343677747281, 27.103389184401976 ], [ 53.490179620987078, 27.101902021273361 ], [ 53.483166968689147, 27.101612996016456 ], [ 53.459949520692419, 27.10372367310697 ], [ 53.449546897888581, 27.104779011652454 ], [ 53.435073683552901, 27.107191214041734 ], [ 53.419846655970616, 27.10990494172944 ], [ 53.412157760854996, 27.111714093521584 ], [ 53.405976492232355, 27.115181634456121 ], [ 53.399644460960587, 27.120910615130697 ], [ 53.39542310677939, 27.125131969311781 ], [ 53.390381776275035, 27.130568885208277 ], [ 53.381815716654103, 27.139610837030375 ], [ 53.376818848541745, 27.145678462595413 ], [ 53.371703007379324, 27.153530683914596 ], [ 53.365690071346137, 27.167420354474245 ], [ 53.361514117280933, 27.17606969523041 ], [ 53.358230461092944, 27.18392191654965 ], [ 53.356231713848047, 27.189347087642943 ], [ 53.356088946187583, 27.191488602548304 ], [ 53.354518501923906, 27.193344582132681 ], [ 53.353624686036824, 27.193732686399642 ], [ 53.343668159737206, 27.198055914924339 ], [ 53.324668163605622, 27.203762655569903 ], [ 53.306203546200379, 27.211186573908094 ], [ 53.291355709523998, 27.217658707843896 ], [ 53.282408936142076, 27.222417629855556 ], [ 53.271368237075137, 27.227557265628207 ], [ 53.262421463693045, 27.231174046357125 ], [ 53.249857909582374, 27.234790827085931 ], [ 53.236651901000073, 27.238574170085144 ], [ 53.217996926714193, 27.24485594714065 ], [ 53.20238766251606, 27.249234155391377 ], [ 53.182400190067028, 27.253612363642048 ], [ 53.17059806347811, 27.256087003088112 ], [ 53.162607928599016, 27.258124773493535 ], [ 53.154315982885862, 27.261893839726667 ], [ 53.145571749224814, 27.265964431258624 ], [ 53.137581328810427, 27.269431972193217 ], [ 53.129940241912777, 27.271523217028459 ], [ 53.123258877124044, 27.273351801075819 ], [ 53.118283709696186, 27.273653326374415 ], [ 53.109991763982975, 27.27244722517986 ], [ 53.096564417937998, 27.271460968756855 ], [ 53.08600555972464, 27.271758401382556 ], [ 53.077231297265655, 27.271907117695434 ], [ 53.069646765309358, 27.272501982946892 ], [ 53.059236623409049, 27.274881443952722 ], [ 53.049718779385728, 27.27785577021001 ], [ 53.039754786423657, 27.280681380154419 ], [ 53.030683091339085, 27.284696720601801 ], [ 53.020106387168084, 27.290056456517334 ], [ 53.010683721585053, 27.296195465912376 ], [ 53.003688106227798, 27.300906798703977 ], [ 53.001369887630801, 27.302759373001891 ], [ 52.989012522723272, 27.30888770096783 ], [ 52.975745409582373, 27.315973545486486 ], [ 52.966699650622559, 27.320496424966279 ], [ 52.955241689273578, 27.326526930939451 ], [ 52.94031618698989, 27.335723452548564 ], [ 52.930818140082181, 27.342658534417694 ], [ 52.917614035068709, 27.353806442479822 ], [ 52.910829715848877, 27.360741524348953 ], [ 52.899371754499725, 27.37732541577526 ], [ 52.890024470241315, 27.390894054214925 ], [ 52.885434727907182, 27.400265068189015 ], [ 52.883055266901351, 27.403685543384881 ], [ 52.871306678185078, 27.41379825265966 ], [ 52.862234983100336, 27.420787919364273 ], [ 52.854947883770024, 27.426141706627391 ], [ 52.842126785180596, 27.435420750197011 ], [ 52.839423851865035, 27.437376950426199 ], [ 52.823744536334857, 27.449437962372485 ], [ 52.810929711141853, 27.457126857488277 ], [ 52.799622512441999, 27.464664989954827 ], [ 52.786656924599754, 27.474464562161302 ], [ 52.779118792133204, 27.482756507874285 ], [ 52.770896326681452, 27.492943646689469 ], [ 52.765327364672203, 27.497555443353292 ], [ 52.761247517124389, 27.500934067103856 ], [ 52.743909812451591, 27.511185927258282 ], [ 52.7200893138575, 27.522945413905973 ], [ 52.705182244465107, 27.531153697770151 ], [ 52.693189760995722, 27.53686440418403 ], [ 52.684419397267845, 27.541203426238951 ], [ 52.675105857351468, 27.545811177566122 ], [ 52.648646250966635, 27.559516872959648 ], [ 52.63969947758477, 27.563704724329853 ], [ 52.622757715223202, 27.567131148178362 ], [ 52.615524153765477, 27.571509356429033 ], [ 52.607529164785831, 27.577029705962616 ], [ 52.600930278777355, 27.581885490006641 ], [ 52.597440250121053, 27.584453624300636 ], [ 52.582395584430401, 27.601122110324638 ], [ 52.572294486925273, 27.613183122270982 ], [ 52.566565506250754, 27.619364390893395 ], [ 52.55993194968039, 27.630370064294482 ], [ 52.553901443707218, 27.641978788292931 ], [ 52.549247598693512, 27.649718699052698 ], [ 52.547879163391372, 27.65259713192961 ], [ 52.543727249159929, 27.66133046876115 ], [ 52.538587613387278, 27.66970617150173 ], [ 52.534399762017074, 27.681508298090648 ], [ 52.530592624407802, 27.690645428353037 ], [ 52.527737271200806, 27.699592201734902 ], [ 52.524905712603754, 27.706409357516634 ], [ 52.518957060089178, 27.716165147640481 ], [ 52.513960191976992, 27.727110668267244 ], [ 52.511580730971161, 27.73329726688246 ], [ 52.508963323864862, 27.744480733609919 ], [ 52.505632078456586, 27.764944098260003 ], [ 52.503490563551281, 27.778507025993235 ], [ 52.500143455069917, 27.788016938479927 ], [ 52.495955603699485, 27.796773354981326 ], [ 52.492529179851203, 27.80191299075392 ], [ 52.488912399122228, 27.807623697167969 ], [ 52.48491490463249, 27.813905474223304 ], [ 52.480536696381819, 27.819235466876421 ], [ 52.475206703728702, 27.8249461732903 ], [ 52.467782785390511, 27.832941162269947 ], [ 52.463404577139784, 27.837319370520675 ], [ 52.46090138416173, 27.842601773953731 ], [ 52.457094246552288, 27.848312480367611 ], [ 52.455571391508613, 27.852309974857349 ], [ 52.45309675206255, 27.861637462000374 ], [ 52.449860685094563, 27.874010659230578 ], [ 52.445910779825056, 27.88344779193659 ], [ 52.439427985903819, 27.895358041233635 ], [ 52.430532989593473, 27.910434306166621 ], [ 52.421034942685708, 27.924605995203478 ], [ 52.414702911413769, 27.932897940916632 ], [ 52.404764569041618, 27.946143638908609 ], [ 52.394949292392539, 27.960569121256469 ], [ 52.392212912235777, 27.966470184550815 ], [ 52.391320614358619, 27.96974194343386 ], [ 52.391228529217642, 27.980361698003094 ], [ 52.391530054516238, 27.985035340132185 ], [ 52.389268614776427, 27.990312032858867 ], [ 52.384914947856998, 28.000175821007304 ], [ 52.381320703114284, 28.004856914041 ], [ 52.375609996700405, 28.01199529705849 ], [ 52.367995721481691, 28.01770600347254 ], [ 52.361571176765949, 28.021275194981285 ], [ 52.360281649514548, 28.021643631338804 ], [ 52.354908685949624, 28.02317876378595 ], [ 52.343487273121696, 28.024368494288865 ], [ 52.330876129790624, 28.026510009194169 ], [ 52.311602495643513, 28.030555092903967 ], [ 52.301648544007037, 28.033167931445178 ], [ 52.283406263438053, 28.040253775963834 ], [ 52.268480761154535, 28.047188857832964 ], [ 52.255665935961531, 28.054726990299457 ], [ 52.245263313157864, 28.064375799856464 ], [ 52.235916028899396, 28.075079947958955 ], [ 52.230333385076619, 28.083870468085138 ], [ 52.228102640383668, 28.087142226968183 ], [ 52.223938583623465, 28.094578042611374 ], [ 52.212189994907362, 28.106772780266283 ], [ 52.201184987755198, 28.116290624289604 ], [ 52.18095956920564, 28.129526376134493 ], [ 52.164578467343688, 28.145104409907162 ], [ 52.158332382203355, 28.152242792924653 ], [ 52.148814538180034, 28.16562726108242 ], [ 52.141081289911085, 28.17767328242445 ], [ 52.129235904540906, 28.198324815151352 ], [ 52.123356161217032, 28.213250317434927 ], [ 52.120190145581091, 28.219883874005461 ], [ 52.119737857633197, 28.224406753485255 ], [ 52.120039382931793, 28.23315098714653 ], [ 52.119285569685132, 28.238427679872984 ], [ 52.11996024205871, 28.246048284457856 ], [ 52.120257674684467, 28.252740518536768 ], [ 52.11996024205871, 28.262704511498669 ], [ 52.118324362617216, 28.275494114405035 ], [ 52.115498752672806, 28.287837568372765 ], [ 52.113862873231312, 28.292001625132968 ], [ 52.111334695912603, 28.298396426586123 ], [ 52.10693435867455, 28.309703415893296 ], [ 52.09771394727693, 28.330077550755732 ], [ 52.087898670627908, 28.35297986293682 ], [ 52.082396167051911, 28.365918182156065 ], [ 52.075296961859863, 28.381966445012608 ], [ 52.068060354691966, 28.401414826776147 ], [ 52.065648152302629, 28.407445332749319 ], [ 52.0615775607709, 28.414531177267747 ], [ 52.058138846086706, 28.426733068082797 ], [ 52.056903918641581, 28.431115068693884 ], [ 52.054491716252301, 28.438200913212484 ], [ 52.049631143666431, 28.462670293995416 ], [ 52.043920437252552, 28.494269536152729 ], [ 52.038780801479959, 28.515399149884672 ], [ 52.03535437763145, 28.534054124170325 ], [ 52.03264179208486, 28.547627759478019 ], [ 52.031499650802175, 28.562094882393467 ], [ 52.028644297595122, 28.576752362189382 ], [ 52.02217216365932, 28.600356615367218 ], [ 52.019380262745699, 28.61241651689852 ], [ 52.015382768255961, 28.627264353574958 ], [ 52.011385273766223, 28.640589335207494 ], [ 52.007578136156781, 28.651439677394194 ], [ 52.001106002220979, 28.665335729668243 ], [ 51.996918150850718, 28.675424644332793 ], [ 51.994253154524188, 28.687417127802178 ], [ 51.992444764159814, 28.698219880768647 ], [ 51.988637626550371, 28.715827892211905 ], [ 51.983164866236962, 28.73319795755441 ], [ 51.980071566929439, 28.749616238494696 ], [ 51.976502375420694, 28.767462196038423 ], [ 51.972560845853764, 28.786870793213893 ], [ 51.965173476036568, 28.813254256846562 ], [ 51.960952121855371, 28.825315268792906 ], [ 51.956730767674117, 28.834210265103252 ], [ 51.950183556984598, 28.842739281275328 ], [ 51.940233222128995, 28.851031226988482 ], [ 51.928172210182481, 28.863243001584124 ], [ 51.923649330702631, 28.867765881064145 ], [ 51.913095945249665, 28.88284214599696 ], [ 51.905859338081768, 28.895204683242071 ], [ 51.90118569595262, 28.907114932539116 ], [ 51.894948938299535, 28.927906234505031 ], [ 51.891082314165089, 28.943372731042928 ], [ 51.888952696564786, 28.950570600585479 ], [ 51.880196280063387, 28.965037723500927 ], [ 51.870678436040066, 28.979124132655443 ], [ 51.863825588343275, 28.98946584125747 ], [ 51.846090351677674, 29.000180333571109 ], [ 51.833746790594944, 29.01062174690361 ], [ 51.827798138080368, 29.016570399418185 ], [ 51.817834145118411, 29.024154931374255 ], [ 51.807275286905053, 29.033077910146119 ], [ 51.795080549250201, 29.044380349923813 ], [ 51.799446860196042, 29.048443279591368 ], [ 51.804015425327236, 29.052869077062098 ], [ 51.807727384496275, 29.057580409853756 ], [ 51.813153637162657, 29.066762966189856 ], [ 51.816580061011109, 29.072045369622913 ], [ 51.817864969954258, 29.079207547250405 ], [ 51.816437293350646, 29.088487445173087 ], [ 51.814758923047293, 29.093242827699555 ], [ 51.81358194014382, 29.096577612592966 ], [ 51.806443557126329, 29.106571348817454 ], [ 51.7976395514047, 29.115184997658616 ], [ 51.78983491930552, 29.120895704072495 ], [ 51.77537057242796, 29.131048864184436 ], [ 51.763770700024565, 29.140417991894878 ], [ 51.752170827621114, 29.149638403292499 ], [ 51.742058118346336, 29.159304963628699 ], [ 51.733878721138808, 29.168079226087684 ], [ 51.72560393518512, 29.178528988116852 ], [ 51.717870686916172, 29.188641697391631 ], [ 51.712294318373779, 29.19496158173996 ], [ 51.71117845283726, 29.196226229347928 ], [ 51.701065743562481, 29.206487654935358 ], [ 51.690358169036244, 29.218831108903316 ], [ 51.681398536950951, 29.229247199456211 ], [ 51.676895406997403, 29.23471995976962 ], [ 51.669608307667033, 29.244237803792942 ], [ 51.661875059398085, 29.253755647816263 ], [ 51.656967421073546, 29.260299165582296 ], [ 51.646557279173066, 29.273683633740234 ], [ 51.640459910345612, 29.280970733070433 ], [ 51.633172811015072, 29.292719321786876 ], [ 51.627224158500667, 29.303099720424598 ], [ 51.625439562746124, 29.308007358749308 ], [ 51.624101115930557, 29.314848309140871 ], [ 51.621126789673269, 29.325555883667334 ], [ 51.617260165538767, 29.337601905009137 ], [ 51.611010987099178, 29.351202124845145 ], [ 51.601060652243348, 29.369745930712725 ], [ 51.593522519776855, 29.381053129412408 ], [ 51.59079245946856, 29.386302334605375 ], [ 51.590189408871368, 29.389769875539969 ], [ 51.588380257079223, 29.392483603227845 ], [ 51.585817292040815, 29.394292755019762 ], [ 51.583706614950131, 29.394895805617125 ], [ 51.579032972820983, 29.394745042967827 ], [ 51.576620770431703, 29.395951144162439 ], [ 51.57601771983434, 29.399569447746273 ], [ 51.57466085599026, 29.400926311590297 ], [ 51.570590264458531, 29.400926311590297 ], [ 51.5636551825894, 29.408916732004684 ], [ 51.561544505498716, 29.41057512114736 ], [ 51.556720100720099, 29.411630459692788 ], [ 51.553101797136208, 29.413891899432599 ], [ 51.552649509188313, 29.417208677717895 ], [ 51.555513999525544, 29.421279269249794 ], [ 51.555212474226948, 29.424143759587025 ], [ 51.547096180325241, 29.429600577511621 ], [ 51.537673514742153, 29.437024495849869 ], [ 51.532533878969559, 29.439879849056865 ], [ 51.530249596403962, 29.440165384377622 ], [ 51.524681657650376, 29.439737081396629 ], [ 51.521969072103616, 29.440022616717329 ], [ 51.520113092519182, 29.441878596301763 ], [ 51.520255860179418, 29.444448414188059 ], [ 51.521540769122623, 29.446589929093363 ], [ 51.519256486557026, 29.448588676338261 ], [ 51.516829436331136, 29.45187233252625 ], [ 51.512260871199771, 29.453442776790155 ], [ 51.50854891203079, 29.453871079771147 ], [ 51.501410529013299, 29.45187233252625 ], [ 51.495414287278663, 29.450016352941702 ], [ 51.490845722147299, 29.449445282300417 ], [ 51.488418671921465, 29.449730817620946 ], [ 51.485848854035169, 29.45187233252625 ], [ 51.48513501573342, 29.454870453393596 ], [ 51.487847601280009, 29.458725180223041 ], [ 51.48756206595931, 29.460866695128345 ], [ 51.485277783393713, 29.46243713939225 ], [ 51.481446851174439, 29.460105267606423 ], [ 51.477223307889005, 29.462365755562018 ], [ 51.470294614872728, 29.461709916622226 ], [ 51.465885157688604, 29.462029442505127 ], [ 51.463727302496466, 29.462185808823449 ], [ 51.459539451126261, 29.462185808823449 ], [ 51.457159990120431, 29.463232771666071 ], [ 51.456684097919208, 29.465992946432721 ], [ 51.453638387831916, 29.466754373954643 ], [ 51.451354105266319, 29.465802589552197 ], [ 51.449831250222473, 29.46418455606829 ], [ 51.447832502977576, 29.465041162030445 ], [ 51.447166253895887, 29.46694473083511 ], [ 51.444310900689061, 29.468467585878784 ], [ 51.443549473167138, 29.469704905601873 ], [ 51.444120543808594, 29.471798831287003 ], [ 51.442788045645216, 29.473416864770911 ], [ 51.439647157117633, 29.473702400091611 ], [ 51.435554484187492, 29.472750615689392 ], [ 51.43203288189892, 29.476081861097441 ], [ 51.428606458050467, 29.476367396418198 ], [ 51.425084855761952, 29.475605968896275 ], [ 51.421943967234199, 29.470466333123625 ], [ 51.420061020424839, 29.46788382477871 ], [ 51.416063525935101, 29.466670299665736 ], [ 51.415349687633409, 29.464742936250957 ], [ 51.413993394860029, 29.463172491987223 ], [ 51.410995273992739, 29.46381494645874 ], [ 51.407783001634755, 29.465742309873349 ], [ 51.404499345446709, 29.465742309873349 ], [ 51.402072295220876, 29.465028471571657 ], [ 51.399573861164583, 29.464528784760432 ], [ 51.395933285825777, 29.464314633269964 ], [ 51.394291457731697, 29.46245865368536 ], [ 51.390436730902252, 29.462101734534599 ], [ 51.384887557443335, 29.466630497772599 ], [ 51.382317739557038, 29.470342456941637 ], [ 51.381175598274353, 29.472246025746244 ], [ 51.379367207909752, 29.472341204186478 ], [ 51.376892568463688, 29.47072317070257 ], [ 51.372419181772784, 29.465583534929976 ], [ 51.37023007764742, 29.464060679886302 ], [ 51.366708475358905, 29.464726928967764 ], [ 51.358999021699958, 29.468629245017439 ], [ 51.353359487015211, 29.473297733995082 ], [ 51.344627077224743, 29.480526550046591 ], [ 51.330058376561112, 29.493302753462899 ], [ 51.31849419607272, 29.504724166290828 ], [ 51.309357065810332, 29.513147458251524 ], [ 51.304618402385472, 29.518754675416915 ], [ 51.299190947009492, 29.527951197026084 ], [ 51.295120355477593, 29.536996955985899 ], [ 51.291502051893701, 29.546042714945543 ], [ 51.288788324205825, 29.552073220918714 ], [ 51.284868495323167, 29.562174318423843 ], [ 51.282785362873199, 29.569310000753092 ], [ 51.281298199744697, 29.575258653267667 ], [ 51.280852050805947, 29.584479064665288 ], [ 51.277729008235951, 29.595930220755804 ], [ 51.274754681978663, 29.602325022209016 ], [ 51.273980574476298, 29.604905380550406 ], [ 51.272970086224291, 29.608273674723591 ], [ 51.27267265359842, 29.613627461986709 ], [ 51.273118802536999, 29.618088951372613 ], [ 51.277992236109583, 29.627733159196282 ], [ 51.284464370045384, 29.639154572024211 ], [ 51.293411143427477, 29.653050624298203 ], [ 51.297979708558614, 29.662378111441058 ], [ 51.300263991124211, 29.66885024537703 ], [ 51.301977203048352, 29.679510230683093 ], [ 51.301977203048352, 29.685792007738598 ], [ 51.289486060695026, 29.69490156163414 ], [ 51.281194114981872, 29.699876729062055 ], [ 51.27305293191796, 29.704550371191203 ], [ 51.263856410309018, 29.707867149476442 ], [ 51.253755312803946, 29.710128589216481 ], [ 51.238980573169499, 29.711485453060504 ], [ 51.22254744439266, 29.712390028956463 ], [ 51.210992781748359, 29.713451078208095 ], [ 51.196821092711332, 29.713451078208095 ], [ 51.18762457110239, 29.713752603506691 ], [ 51.182498641025177, 29.714506416753409 ], [ 51.174809745909386, 29.715863280597432 ], [ 51.168025426689553, 29.717973957687946 ], [ 51.159431955677803, 29.721441498622539 ], [ 51.15430602560059, 29.723250650414627 ], [ 51.143552752732546, 29.730254435254551 ], [ 51.124814497311604, 29.738136399836151 ], [ 51.097153263118855, 29.751967016932724 ], [ 51.078266291385091, 29.760889995704588 ], [ 51.063225528010378, 29.768295639782139 ], [ 51.053350764836125, 29.77234072349205 ], [ 51.043594974712278, 29.776385807202018 ], [ 51.026700801570769, 29.778646295157614 ], [ 51.015874253994298, 29.781144729213679 ], [ 51.006771634088466, 29.78231009403595 ], [ 50.99811785345679, 29.783069463597315 ], [ 50.988190288257726, 29.780840277178015 ], [ 50.95887532866584, 29.780649920297549 ], [ 50.936413216770916, 29.780078849656093 ], [ 50.918900383767948, 29.782553489102156 ], [ 50.892250420502592, 29.780459563417025 ], [ 50.859341285061532, 29.776165826032013 ], [ 50.84030559701489, 29.774262257227406 ], [ 50.824886689697166, 29.776356182912536 ], [ 50.806231715411343, 29.782637959967815 ], [ 50.786053886081959, 29.785302956294402 ], [ 50.758185638781754, 29.787777595740465 ], [ 50.734771742484213, 29.789490807664777 ], [ 50.714213199393896, 29.794059372795971 ], [ 50.675190038898222, 29.805671142504423 ], [ 50.661865057265629, 29.81023970763556 ], [ 50.653422943768476, 29.813141499989911 ], [ 50.648598538989916, 29.816759803573746 ], [ 50.645130998055322, 29.82339336014428 ], [ 50.644678710107428, 29.830026916714644 ], [ 50.646035573951281, 29.83334369499994 ], [ 50.649352352236576, 29.835303609441326 ], [ 50.652759261235929, 29.836282394717273 ], [ 50.657042291046366, 29.837519714440191 ], [ 50.659136216731667, 29.83856667728287 ], [ 50.659421752052197, 29.840660602967944 ], [ 50.663419246542105, 29.840660602967944 ], [ 50.665322815346769, 29.841326852049633 ], [ 50.66427585250409, 29.843515956174997 ], [ 50.665227636906536, 29.844753275897915 ], [ 50.667797454792833, 29.845419524979604 ], [ 50.665798707547935, 29.848465235067124 ], [ 50.666714800035152, 29.8500118847208 ], [ 50.66968912629244, 29.851855967000404 ], [ 50.668113908685598, 29.854960009934928 ], [ 50.66818529251583, 29.856244918878076 ], [ 50.672968009137492, 29.858029514632449 ], [ 50.673396312118484, 29.861741473801658 ], [ 50.676537200646237, 29.86274084742405 ], [ 50.67967808917399, 29.863526069556031 ], [ 50.680677462796439, 29.864739594668947 ], [ 50.681462684928192, 29.867380796385476 ], [ 50.683104513022329, 29.868094634687168 ], [ 50.684889108776702, 29.867380796385476 ], [ 50.684674957286177, 29.864382675518016 ], [ 50.684532189625884, 29.86245531210335 ], [ 50.686530936870781, 29.861884241461894 ], [ 50.68781584581393, 29.863454685725799 ], [ 50.689314906247603, 29.864596827008484 ], [ 50.693312400737341, 29.864382675518016 ], [ 50.696167753944337, 29.865738968291396 ], [ 50.697381279057311, 29.869165392139848 ], [ 50.699522793962615, 29.870093381932065 ], [ 50.70217970012169, 29.868823416004091 ], [ 50.703702555165364, 29.866539133438494 ], [ 50.706272373051661, 29.865682527476338 ], [ 50.709698796900113, 29.866348776558027 ], [ 50.713410756069152, 29.869775200406309 ], [ 50.714267362031308, 29.872630553613362 ], [ 50.711126473503555, 29.875390728380125 ], [ 50.695517209305422, 29.886621784327588 ], [ 50.676338753598316, 29.900740911070898 ], [ 50.666487785034235, 29.909735273672993 ], [ 50.658778331375288, 29.919443474576838 ], [ 50.655209139866543, 29.925011413330424 ], [ 50.651141919958832, 29.932067439056425 ], [ 50.647453755399852, 29.935755603615462 ], [ 50.643289698639649, 29.938016091571001 ], [ 50.637103100024376, 29.94003863342607 ], [ 50.628893959554375, 29.940871444778054 ], [ 50.621517630436244, 29.940871444778054 ], [ 50.618900223329888, 29.940871444778054 ], [ 50.61521205877068, 29.942180148331204 ], [ 50.609739298457328, 29.943845771035342 ], [ 50.605337295596598, 29.944321663236565 ], [ 50.602719888490242, 29.944797555437731 ], [ 50.60438551119438, 29.94812880084578 ], [ 50.606527026099513, 29.95050826185161 ], [ 50.607240864401263, 29.952649776756971 ], [ 50.609144433206041, 29.953363615058663 ], [ 50.611048002010648, 29.953839507259886 ], [ 50.610334163708956, 29.956932806567409 ], [ 50.611276033690274, 29.957963906336545 ], [ 50.613298575545343, 29.957428527610261 ], [ 50.614428819523027, 29.960521826917841 ], [ 50.616927253579092, 29.959629529040626 ], [ 50.618414416707765, 29.960343367342375 ], [ 50.618473903232939, 29.962901287923671 ], [ 50.620080039411846, 29.963198720549372 ], [ 50.622043094741684, 29.961949503521453 ], [ 50.623351798294891, 29.963972045376295 ], [ 50.623351798294891, 29.967124831209105 ], [ 50.626266638027118, 29.967065344683874 ], [ 50.628114686074866, 29.968321772199829 ], [ 50.629006983952081, 29.971296098457117 ], [ 50.629185443527547, 29.972723775060729 ], [ 50.632040796734543, 29.972961721161255 ], [ 50.635193582567354, 29.97284274811102 ], [ 50.638703287550868, 29.974389397764696 ], [ 50.640130964154309, 29.977185264446518 ], [ 50.64149915423269, 29.979207806301531 ], [ 50.645246805316901, 29.979207806301531 ], [ 50.650184186904028, 29.977899102748381 ], [ 50.654883622390457, 29.977363724021984 ], [ 50.658967570630125, 29.978547109295448 ], [ 50.661466004686247, 29.97997478589906 ], [ 50.663607519591551, 29.980331705049821 ], [ 50.666819791949536, 29.97997478589906 ], [ 50.669460993665894, 29.980331705049821 ], [ 50.671745276231491, 29.981545230162965 ], [ 50.674386477948019, 29.984471967200022 ], [ 50.676456609023091, 29.987755623388068 ], [ 50.679954416701605, 29.992252804689201 ], [ 50.682595618417963, 29.994608471084803 ], [ 50.685807890775948, 29.996678602159932 ], [ 50.689591233775218, 29.997178288971156 ], [ 50.695587475509797, 29.996393066839175 ], [ 50.706324396721811, 29.993743933586188 ], [ 50.714295591091457, 29.993030095284269 ], [ 50.726847247897126, 29.992673176133508 ], [ 50.736603038021144, 29.992911122234034 ], [ 50.751355696257122, 29.992435230032811 ], [ 50.759683809777528, 29.992554203083273 ], [ 50.768011923297934, 29.99207831088205 ], [ 50.774912360214955, 29.990412688177912 ], [ 50.780861012729531, 29.988033227172082 ], [ 50.787523503545799, 29.985772739216543 ], [ 50.794185994362067, 29.983274305160421 ], [ 50.803467478592324, 29.975084809520411 ], [ 50.81160866165601, 29.968602015599345 ], [ 50.815980778486562, 29.966189813210065 ], [ 50.825026537446377, 29.964682186716743 ], [ 50.831509331367442, 29.964682186716743 ], [ 50.841459666223273, 29.965586762612702 ], [ 50.848093222793807, 29.966491338508661 ], [ 50.853822203468155, 29.968752778248643 ], [ 50.857138981753621, 29.970863455339156 ], [ 50.861058810636109, 29.975235572169709 ], [ 50.863018725077325, 29.982773704636202 ], [ 50.864677114219944, 29.990010311803928 ], [ 50.864986739203914, 29.994779648716531 ], [ 50.868225334838428, 29.999954265530334 ], [ 50.868225352117065, 30.005597336712412 ], [ 50.870128920921672, 30.009023760560694 ], [ 50.873745701650478, 30.011308043126462 ], [ 50.878694980542605, 30.012069470648214 ], [ 50.883073188793276, 30.013782682572355 ], [ 50.889926036490237, 30.017780177062264 ], [ 50.898301739230703, 30.025204095400511 ], [ 50.904773873166505, 30.032628013738702 ], [ 50.911246007102477, 30.042716928403308 ], [ 50.913911003428836, 30.051663701785344 ], [ 50.916004929114138, 30.058516549482135 ], [ 50.91868245092337, 30.063520575012944 ], [ 50.923808381000583, 30.073470909868774 ], [ 50.925768295441799, 30.082818194127185 ], [ 50.926823633987055, 30.100608186748104 ], [ 50.927426684584418, 30.117945891420902 ], [ 50.929696632700143, 30.124743630223861 ], [ 50.936549480396934, 30.137449951995166 ], [ 50.940521173591151, 30.143610129194428 ], [ 50.943545095753962, 30.148300294181638 ], [ 50.952111155375064, 30.155866980180122 ], [ 50.961962123939145, 30.161006615952772 ], [ 50.980664687445028, 30.170000978554867 ], [ 50.98980181770736, 30.175711684968917 ], [ 50.992371635593656, 30.178852573496499 ], [ 50.996226362423158, 30.180565785420811 ], [ 50.997924144523836, 30.178063020634113 ], [ 51.00511914648979, 30.181035924716127 ], [ 51.00749860749562, 30.181630789967585 ], [ 51.00987806850145, 30.181630789967585 ], [ 51.014339557887354, 30.184605116224873 ], [ 51.018949763586022, 30.187876875107747 ], [ 51.021626657217553, 30.18728200985629 ], [ 51.022816387720638, 30.184158967286464 ], [ 51.024452267162133, 30.181184641029176 ], [ 51.026831728167963, 30.180143626838969 ], [ 51.028913756548093, 30.180738492090427 ], [ 51.031590650179623, 30.184158967286464 ], [ 51.033672678559753, 30.184753832537922 ], [ 51.037688019007078, 30.184010250973415 ], [ 51.040662345264366, 30.185646130414909 ], [ 51.042595657331617, 30.18728200985646 ], [ 51.044975118337447, 30.18728200985646 ], [ 51.047503295656156, 30.185794846727788 ], [ 51.050031472974808, 30.185051265163452 ], [ 51.050923770852023, 30.18728200985646 ], [ 51.049882756661987, 30.191297350303955 ], [ 51.049882756661987, 30.193081946058328 ], [ 51.051518636103481, 30.194866541812701 ], [ 51.055087827612226, 30.194569109186773 ], [ 51.059047539145467, 30.195176091062422 ], [ 51.06083213489984, 30.197258119442495 ], [ 51.060237269648383, 30.200083729386904 ], [ 51.06083213489984, 30.202314474079913 ], [ 51.064698759034286, 30.202611906705613 ], [ 51.070052546297404, 30.201273459889819 ], [ 51.074662751996243, 30.201273459889819 ], [ 51.077785794566353, 30.202017041454155 ], [ 51.080611404510819, 30.201868325141277 ], [ 51.083437014455228, 30.199935013074082 ], [ 51.085221610209601, 30.197258119442495 ], [ 51.087303638589674, 30.19324277899517 ], [ 51.091170262724177, 30.194135076872328 ], [ 51.093549723730007, 30.195473523688122 ], [ 51.09325229110425, 30.198299133632531 ], [ 51.09325229110425, 30.200083729386904 ], [ 51.096672766300173, 30.201124743576997 ], [ 51.099349659931704, 30.201124743576997 ], [ 51.100985539373198, 30.198745282571167 ], [ 51.101431688311834, 30.194581225810964 ], [ 51.102472702501871, 30.191606899553676 ], [ 51.104406014569122, 30.190119736425004 ], [ 51.106488042949195, 30.190417169050761 ], [ 51.108718787642147, 30.194135076872328 ], [ 51.11005723445794, 30.196960686816794 ], [ 51.11288284440235, 30.197258119442495 ], [ 51.114072574905265, 30.199340147822625 ], [ 51.115411021721059, 30.202463190392734 ], [ 51.120169943732719, 30.20320677195707 ], [ 51.125077582057258, 30.201570892515576 ], [ 51.128646773566004, 30.201570892515576 ], [ 51.131174950884713, 30.204099069834285 ], [ 51.134719229436769, 30.204048815617853 ], [ 51.135004764757298, 30.205476492221237 ], [ 51.134528872556302, 30.207570417906368 ], [ 51.137479404203361, 30.208807737629513 ], [ 51.135861370719454, 30.21099684175482 ], [ 51.132244589990705, 30.21137755551581 ], [ 51.130626556506627, 30.212900410559484 ], [ 51.132339768430938, 30.215565406886014 ], [ 51.137193868882832, 30.217659332571145 ], [ 51.140334757410415, 30.219372544495286 ], [ 51.144141895019857, 30.219372544495286 ], [ 51.147473140427905, 30.217373797250389 ], [ 51.147092426666916, 30.213376302760651 ], [ 51.147092426666916, 30.211472733956043 ], [ 51.149186352352217, 30.210140235792664 ], [ 51.152803133081022, 30.211758269276572 ], [ 51.155753664728252, 30.212900410559484 ], [ 51.160607765180202, 30.211472733956043 ], [ 51.165081151871107, 30.211948626157096 ], [ 51.170506322964457, 30.213947373402107 ], [ 51.173621037421128, 30.213078942239747 ], [ 51.175905319986725, 30.210223589032751 ], [ 51.178689289363319, 30.20943836690077 ], [ 51.182258480872065, 30.211222962655143 ], [ 51.184114460456669, 30.214006932032135 ], [ 51.185542137060281, 30.217147820559717 ], [ 51.18625597536203, 30.220431476747763 ], [ 51.187326732814654, 30.221859153351375 ], [ 51.189896550700951, 30.223001294634059 ], [ 51.190480708377891, 30.225177888562996 ], [ 51.190337940717427, 30.228104625600224 ], [ 51.191194546679583, 30.23138828178827 ], [ 51.192550839452963, 30.233315645202879 ], [ 51.195120657339089, 30.23410086733486 ], [ 51.195548960320252, 30.235814079259001 ], [ 51.196169639118409, 30.238487872380801 ], [ 51.200095749778086, 30.238773407701558 ], [ 51.20195172936252, 30.238916175361794 ], [ 51.204236011928117, 30.241271841757623 ], [ 51.206591678323946, 30.240986306436923 ], [ 51.208733193229079, 30.240415235795467 ], [ 51.210160869832691, 30.241129074097159 ], [ 51.211160243455083, 30.242699518361064 ], [ 51.212159617077532, 30.244341346455144 ], [ 51.215086354114817, 30.2449124170966 ], [ 51.218227242642342, 30.24598317454911 ], [ 51.220368757547703, 30.248338840944882 ], [ 51.222367504792544, 30.250908658831236 ], [ 51.224713752488583, 30.251449986210048 ], [ 51.229948566701296, 30.251449986210048 ], [ 51.233874677360973, 30.251449986210048 ], [ 51.236016192266277, 30.252758689763198 ], [ 51.236611057517734, 30.255614042970251 ], [ 51.23887154547316, 30.257755557875555 ], [ 51.241726898680156, 30.261443722434592 ], [ 51.245058144088432, 30.263466264289434 ], [ 51.248865281697647, 30.265607779194795 ], [ 51.250768850502311, 30.268344159351386 ], [ 51.253148311508141, 30.272865135262521 ], [ 51.256427806643842, 30.275995778888614 ], [ 51.262358625703712, 30.278567549985496 ], [ 51.267182970390138, 30.280659522460041 ], [ 51.271085286439813, 30.285228087591236 ], [ 51.272037070842032, 30.290367723363829 ], [ 51.268705825433983, 30.29722057106062 ], [ 51.265013526861821, 30.302170090302354 ], [ 51.260064247969694, 30.305691692591097 ], [ 51.254353541555815, 30.308261510477394 ], [ 51.247976586060076, 30.310165079282001 ], [ 51.243598377809349, 30.312449361847598 ], [ 51.240552667721829, 30.314924001293662 ], [ 51.237697314515003, 30.319873280185845 ], [ 51.235793745710168, 30.32644059256188 ], [ 51.235793745710168, 30.330438087051618 ], [ 51.237974918298846, 30.339556770482545 ], [ 51.240639914625433, 30.347361402581726 ], [ 51.242638661870444, 30.35116854019094 ], [ 51.24520847975657, 30.353738358077294 ], [ 51.249586688007469, 30.355641926881901 ], [ 51.256154000383503, 30.358687636969421 ], [ 51.259961137992775, 30.360496027333795 ], [ 51.264613705308022, 30.366089262882497 ], [ 51.26758803156531, 30.369182562190019 ], [ 51.269015708168695, 30.371680996246084 ], [ 51.271038250023594, 30.372751753698765 ], [ 51.274369495431813, 30.373584565050919 ], [ 51.281269932348835, 30.373703538101154 ], [ 51.286980638762714, 30.373703538101154 ], [ 51.291739560774374, 30.374655322503372 ], [ 51.294475940931136, 30.376439918257745 ], [ 51.296736428886732, 30.380247055867187 ], [ 51.296736428886732, 30.384649058727916 ], [ 51.293286210428221, 30.391311549544184 ], [ 51.283903418843295, 30.399230377745369 ], [ 51.275908429863648, 30.403513407556034 ], [ 51.268056208544408, 30.407510902045772 ], [ 51.263202108092514, 30.411936699516673 ], [ 51.257205866357765, 30.419503385515156 ], [ 51.256426760333966, 30.420727694981395 ], [ 51.250210251000681, 30.430496495362092 ], [ 51.243555691721099, 30.438173231432245 ], [ 51.235078861887814, 30.446203912326894 ], [ 51.225263585238793, 30.455573040037166 ], [ 51.214556010712556, 30.466280614563402 ], [ 51.203253570934862, 30.47624460752553 ], [ 51.19701481645717, 30.484658443231694 ], [ 51.19389177388706, 30.49060709574627 ], [ 51.190620015004015, 30.500868521333928 ], [ 51.188389270311063, 30.508601769602876 ], [ 51.185563660366654, 30.518565762564776 ], [ 51.183481631986524, 30.524663131392231 ], [ 51.180061156790657, 30.530760500219685 ], [ 51.17217919220883, 30.541319358433043 ], [ 51.164120750935638, 30.55106840675063 ], [ 51.15876696367269, 30.555678612449469 ], [ 51.151331148029271, 30.559693952896794 ], [ 51.146572226017611, 30.564006725969875 ], [ 51.144044048698959, 30.5680220664172 ], [ 51.142556885570457, 30.573524569993197 ], [ 51.142556885570457, 30.579621938820594 ], [ 51.141367155067542, 30.586909038150964 ], [ 51.139879991938756, 30.592114109101203 ], [ 51.138608362310833, 30.595998466529466 ], [ 51.137608988688385, 30.59985319335874 ], [ 51.138180059329841, 30.602280243584801 ], [ 51.140178806574681, 30.605135596791797 ], [ 51.142605856800742, 30.607277111696988 ], [ 51.145603977668031, 30.607848182338387 ], [ 51.150743613440682, 30.60799094999885 ], [ 51.155883249213275, 30.609561394262528 ], [ 51.160594582004762, 30.613273353431737 ], [ 51.163164399891059, 30.617413615581938 ], [ 51.163307167551295, 30.630262705013308 ], [ 51.163064462528837, 30.640116846192257 ], [ 51.166681243257642, 30.646017909486659 ], [ 51.171630522149769, 30.65039611773733 ], [ 51.176579801041896, 30.652870757183393 ], [ 51.186097645065217, 30.653632184705316 ], [ 51.192950492762009, 30.653632184705316 ], [ 51.199232269817344, 30.655916467270913 ], [ 51.20513333311186, 30.657248965434121 ], [ 51.212703203742649, 30.655908640887105 ], [ 51.217579115920273, 30.654344145275843 ], [ 51.225003034258521, 30.648918974182493 ], [ 51.232426952596711, 30.64073362832255 ], [ 51.23585337644522, 30.638163810436197 ], [ 51.238591342909217, 30.633687251130596 ], [ 51.241684642216796, 30.627024760314271 ], [ 51.248109186932538, 30.618577673743459 ], [ 51.253344001145422, 30.612985940379815 ], [ 51.261176754147186, 30.607774860689744 ], [ 51.26772027191322, 30.605097967057986 ], [ 51.277535548562241, 30.602867222365205 ], [ 51.287796974150069, 30.600041612420796 ], [ 51.298653264989014, 30.592754513090426 ], [ 51.306535229570841, 30.587698158453065 ], [ 51.313078747336874, 30.584872548508429 ], [ 51.321704293483151, 30.578923895993853 ], [ 51.338509236836671, 30.570893215099375 ], [ 51.353606333950779, 30.564625847843445 ], [ 51.359335314625355, 30.56040449366219 ], [ 51.360993703767974, 30.552564835897101 ], [ 51.35888302667729, 30.540503823950758 ], [ 51.354653487150131, 30.524407379388322 ], [ 51.354502724500833, 30.516416958973878 ], [ 51.35766874013683, 30.50526052292355 ], [ 51.36601573071448, 30.494376788967315 ], [ 51.37382036281366, 30.484097517422242 ], [ 51.37953106922771, 30.476863955964518 ], [ 51.384480348119666, 30.473056818355076 ], [ 51.396472831589051, 30.468868966984871 ], [ 51.404658177449221, 30.467536468821663 ], [ 51.416841017799072, 30.46982075138726 ], [ 51.430165999431665, 30.471343606430935 ], [ 51.441206698498831, 30.472105033952857 ], [ 51.450534185641686, 30.471153249550468 ], [ 51.456368624027959, 30.469499524151558 ], [ 51.460532680788162, 30.468755942587222 ], [ 51.462912141793993, 30.46414573688844 ], [ 51.465672316560756, 30.461847574133571 ], [ 51.469021436772664, 30.459838102006529 ], [ 51.46995534637125, 30.459277756247275 ], [ 51.477188907828975, 30.458516328725352 ], [ 51.481376759199179, 30.456707938360921 ], [ 51.496700488076783, 30.45023580442512 ], [ 51.513356715117595, 30.442716707646696 ], [ 51.523879881415951, 30.438334930204462 ], [ 51.525752432251807, 30.437948530825679 ], [ 51.53324900912645, 30.436401618137211 ], [ 51.537681178404569, 30.436079278553393 ], [ 51.541428406333978, 30.435806752885753 ], [ 51.556597470246118, 30.431047830874093 ], [ 51.564925583766524, 30.427329923052469 ], [ 51.573699846225566, 30.424504313108059 ], [ 51.57771518667289, 30.424504313108059 ], [ 51.585597151254717, 30.427924788303926 ], [ 51.591843236394993, 30.431493979812672 ], [ 51.597048307345233, 30.435509320260053 ], [ 51.604857321978955, 30.444082613442447 ], [ 51.610435540004005, 30.446796341130323 ], [ 51.61541070743192, 30.448153204974346 ], [ 51.62400417844367, 30.445891765234364 ], [ 51.628225532624924, 30.442876512247892 ], [ 51.630336209715438, 30.440012021910491 ], [ 51.631090022962098, 30.435338379781399 ], [ 51.6339545132995, 30.43066473765208 ], [ 51.639080443376713, 30.425237282276271 ], [ 51.644055610804571, 30.422975842536289 ], [ 51.652347556517611, 30.421317453393613 ], [ 51.658368390760472, 30.419599808592693 ], [ 51.660562801098536, 30.418973779481632 ], [ 51.667320470355094, 30.415928069394113 ], [ 51.674078139611595, 30.411930574904375 ], [ 51.678551526302726, 30.409265578577845 ], [ 51.68845008408681, 30.405077727207413 ], [ 51.699585961594266, 30.397844165749859 ], [ 51.71077770536084, 30.38883081552973 ], [ 51.718986845830955, 30.382406270813931 ], [ 51.724221660043838, 30.379312971506408 ], [ 51.730051339507952, 30.376814537450173 ], [ 51.73849842607882, 30.374554049494748 ], [ 51.745517836045849, 30.373721238142593 ], [ 51.752180326862344, 30.374910968645509 ], [ 51.758575785190942, 30.377264449542452 ], [ 51.764286491604821, 30.380405338070204 ], [ 51.770139965679164, 30.384260064899649 ], [ 51.773994692508666, 30.389970771313529 ], [ 51.778563257639803, 30.397822992632769 ], [ 51.781275843186563, 30.401392184141514 ], [ 51.792126185373093, 30.409815476102153 ], [ 51.801102485702984, 30.416321463278678 ], [ 51.807943436094718, 30.422270115793253 ], [ 51.815676684363666, 30.429705931436501 ], [ 51.824794783526841, 30.439243253549705 ], [ 51.828615003582854, 30.443239115907147 ], [ 51.839216223412677, 30.455294803809522 ], [ 51.843499253223172, 30.462433186827013 ], [ 51.844807956776322, 30.466478270536982 ], [ 51.844149036434544, 30.476447926616117 ], [ 51.837967767812074, 30.485493685575818 ], [ 51.834650989526835, 30.49016732770508 ], [ 51.831484973890838, 30.496197833678252 ], [ 51.830278872696283, 30.501776051703359 ], [ 51.831635736540136, 30.517907655181602 ], [ 51.834204888177396, 30.526439371248784 ], [ 51.837476647060384, 30.531049576947566 ], [ 51.842979150636381, 30.535957215272106 ], [ 51.847589356335163, 30.542054584099503 ], [ 51.857404632984242, 30.55484418700587 ], [ 51.868558356449057, 30.567485073599357 ], [ 51.873775324704468, 30.574435443144807 ], [ 51.87991433409934, 30.579004008276172 ], [ 51.883483525608085, 30.58271596744521 ], [ 51.885196737532453, 30.584286411709058 ], [ 51.888480393720442, 30.592281400688535 ], [ 51.888625672578371, 30.59387946812501 ], [ 51.889051464361728, 30.59856317774387 ], [ 51.887338252437416, 30.604702187138969 ], [ 51.88434013157007, 30.609984590571855 ], [ 51.878486657495785, 30.614410388042756 ], [ 51.872850418693304, 30.616956830104073 ], [ 51.86832753921351, 30.621479709583866 ], [ 51.864173190654128, 30.628861321105546 ], [ 51.860937123686313, 30.635143098160881 ], [ 51.857510699837803, 30.643138087140528 ], [ 51.853132491587132, 30.651942092861987 ], [ 51.849420532417923, 30.656938960974287 ], [ 51.839426796193607, 30.664933949953763 ], [ 51.82329405057402, 30.676498130442212 ], [ 51.810504516888386, 30.685692367768695 ], [ 51.797237403747317, 30.69307973758589 ], [ 51.789699271280824, 30.69926100620836 ], [ 51.785025629151676, 30.70378388568821 ], [ 51.793280629706828, 30.70485931388464 ], [ 51.801460026914356, 30.70723877489047 ], [ 51.80785482836751, 30.710807966399216 ], [ 51.816629090826552, 30.717797633103828 ], [ 51.828228963229947, 30.731182101261652 ], [ 51.835814715711422, 30.74177410143102 ], [ 51.839235190907289, 30.747425321319895 ], [ 51.84116850297454, 30.752779108583013 ], [ 51.84429154554465, 30.761107222103419 ], [ 51.851876125089916, 30.774797498589749 ], [ 51.857303580465668, 30.7873107984841 ], [ 51.860620358750964, 30.795301218898544 ], [ 51.862278747893754, 30.800125623676934 ], [ 51.861629839260445, 30.80278024990389 ], [ 51.860620358750964, 30.806909942896766 ], [ 51.854740615427261, 30.814598838012557 ], [ 51.848900466334385, 30.82261191089583 ], [ 51.843760830561962, 30.830606899875477 ], [ 51.838478427128905, 30.843455989307074 ], [ 51.835480306261559, 30.853021422550398 ], [ 51.834480932639167, 30.861016411530045 ], [ 51.834296667178819, 30.875537976513272 ], [ 51.836256581620091, 30.889558902901001 ], [ 51.839271834606734, 30.900866101600684 ], [ 51.84258861289203, 30.906444319625734 ], [ 51.850126745358523, 30.913982452092284 ], [ 51.862951389793807, 30.926973801565794 ], [ 51.875592276387295, 30.941548000226476 ], [ 51.883622957281943, 30.953147872629927 ], [ 51.891653638176649, 30.966086191849115 ], [ 51.896561276501188, 30.973968156430942 ], [ 51.899452171404903, 30.982996806405083 ], [ 51.899880474385895, 30.989706886441581 ], [ 51.899880474385895, 30.993989916252019 ], [ 51.899880456174685, 31.000080411415524 ], [ 51.900504937392157, 31.006826938745576 ], [ 51.900695294272623, 31.027004768075074 ], [ 51.903931361240438, 31.038997251544458 ], [ 51.908880640132622, 31.049086166209236 ], [ 51.920666407927172, 31.067548800730208 ], [ 51.927507358318962, 31.079892254697938 ], [ 51.935389322900789, 31.094763885984378 ], [ 51.939553379660993, 31.102645850566205 ], [ 51.94654623099774, 31.120265008221907 ], [ 51.952447294292256, 31.133589989854613 ], [ 51.95701585942345, 31.148437826531051 ], [ 51.960442283271732, 31.161572451283178 ], [ 51.964695569819753, 31.183260048620696 ], [ 51.967521179763992, 31.192331743705438 ], [ 51.969454491831414, 31.200064991974386 ], [ 51.97049550602128, 31.207946956556214 ], [ 51.970644222334329, 31.213895609070789 ], [ 51.968413477641377, 31.222521155216896 ], [ 51.965525406845529, 31.240418667749168 ], [ 51.962670053638476, 31.255980342727355 ], [ 51.959386397450487, 31.276253350496916 ], [ 51.955800454536131, 31.297196533314775 ], [ 51.954495764313094, 31.304607173782813 ], [ 51.952826128279014, 31.314090706456113 ], [ 51.947996408736344, 31.34195787760541 ], [ 51.944569984887835, 31.362088117714904 ], [ 51.942571237642994, 31.374651671825575 ], [ 51.938320925421351, 31.398370211236681 ], [ 51.935941464415521, 31.410648230026595 ], [ 51.936488740446919, 31.415928049701392 ], [ 51.940533824156716, 31.425564866775176 ], [ 51.948410868013184, 31.442068541811864 ], [ 51.957758152271595, 31.455787942900827 ], [ 51.964391708842129, 31.465135227159294 ], [ 51.970422214815301, 31.473879460820513 ], [ 51.981707769937714, 31.491252425932885 ], [ 51.988846152955205, 31.504339461464951 ], [ 51.995270697671003, 31.516950604795795 ], [ 52.000029619682664, 31.527182287120866 ], [ 52.00526443389532, 31.537889861647102 ], [ 52.015020224019338, 31.555259926989606 ], [ 52.020492984332748, 31.564301878811705 ], [ 52.036435373071811, 31.584289351260793 ], [ 52.049978471963243, 31.599656703590085 ], [ 52.070679782713967, 31.618216499435562 ], [ 52.105181967298506, 31.642011109493865 ], [ 52.127548900753425, 31.655574037227098 ], [ 52.141349774587184, 31.662712420244588 ], [ 52.160264586014705, 31.667415948404084 ], [ 52.178506866583518, 31.670581964039854 ], [ 52.190869403828628, 31.671938827883935 ], [ 52.204438042268293, 31.671637302585339 ], [ 52.223886424031832, 31.668320524300043 ], [ 52.235062019502152, 31.66739139236654 ], [ 52.243538849335437, 31.666499094489154 ], [ 52.248000338721397, 31.666201661863624 ], [ 52.255138721738888, 31.661740172477494 ], [ 52.259005345873334, 31.659509427784712 ], [ 52.265846296265124, 31.654304356834473 ], [ 52.281610225428722, 31.637201980854854 ], [ 52.297973843660202, 31.618461495230235 ], [ 52.312447057995826, 31.60353599294649 ], [ 52.328126373526004, 31.590268879805592 ], [ 52.343051875809522, 31.577152529313821 ], [ 52.345564426227384, 31.574945451776784 ], [ 52.35335579857076, 31.568101345182924 ], [ 52.362100032232036, 31.562372364508576 ], [ 52.374613332126216, 31.557397197080661 ], [ 52.388634258514003, 31.553025080250109 ], [ 52.400393745161523, 31.550462115211531 ], [ 52.411097893264014, 31.548954488718209 ], [ 52.422103566665044, 31.547748387523598 ], [ 52.432121154606648, 31.545752762131599 ], [ 52.445356906451593, 31.541588705371169 ], [ 52.46156698455377, 31.536829783359508 ], [ 52.47837192790746, 31.531327279783739 ], [ 52.491012814500948, 31.528055520900523 ], [ 52.500650167820766, 31.526268703584037 ], [ 52.527808331534402, 31.518539651830054 ], [ 52.561501499376959, 31.515874655503467 ], [ 52.608519648852166, 31.511877161013558 ], [ 52.639557734789094, 31.50961667305819 ], [ 52.6871469549057, 31.505571589348222 ], [ 52.733070552318225, 31.501764451738779 ], [ 52.768286575204456, 31.498909098531954 ], [ 52.801725438152062, 31.49596748986346 ], [ 52.805145913347928, 31.491059851538921 ], [ 52.80945868642101, 31.487044511091597 ], [ 52.815556055248408, 31.482731738018515 ], [ 52.821802140388741, 31.47633693656536 ], [ 52.827899509216195, 31.46904983723482 ], [ 52.837119920613759, 31.459978142150305 ], [ 52.853132611609851, 31.448657676152777 ], [ 52.862055590381715, 31.441965442073865 ], [ 52.870978569153579, 31.437503952687962 ], [ 52.882727157869851, 31.433339895927759 ], [ 52.893434732396088, 31.429175839167556 ], [ 52.903844874296624, 31.425904080284511 ], [ 52.914761590526439, 31.420366433090919 ], [ 52.92432702376999, 31.41494126199774 ], [ 52.931608174447717, 31.408802252602698 ], [ 52.940888072370569, 31.398665748717917 ], [ 52.949269687711194, 31.390661530313764 ], [ 52.955837000087229, 31.384379753258429 ], [ 52.959548959256267, 31.377812440882167 ], [ 52.961833241821807, 31.374386017033885 ], [ 52.966830109934165, 31.365248886771553 ], [ 52.969685463141218, 31.360680321640359 ], [ 52.973729776770995, 31.351125496466636 ], [ 52.975538928562912, 31.344039651948208 ], [ 52.976141979160275, 31.334089317092378 ], [ 52.976141979160275, 31.320972966600607 ], [ 52.976443504458871, 31.308007378758305 ], [ 52.975553395685893, 31.291940115905675 ], [ 52.973649826881228, 31.283612002385269 ], [ 52.968890904869568, 31.273142373959729 ], [ 52.963418144556215, 31.263624529936408 ], [ 52.954614138834586, 31.25363079371192 ], [ 52.947951648018318, 31.248633925599563 ], [ 52.935340504687304, 31.242209380883935 ], [ 52.923730257833938, 31.238561825792715 ], [ 52.909106280849016, 31.235546572806072 ], [ 52.89403001591603, 31.231777506572882 ], [ 52.876692311243175, 31.226199288547605 ], [ 52.865177474430766, 31.222606407125227 ], [ 52.854172467278829, 31.21710390354923 ], [ 52.845993070071245, 31.211452683660355 ], [ 52.839895701243847, 31.2050578822072 ], [ 52.835582928170766, 31.198514364441166 ], [ 52.834541913980729, 31.192416995613712 ], [ 52.838268068797959, 31.180058760145698 ], [ 52.842979401589389, 31.1736342154299 ], [ 52.851688228870728, 31.166781367733165 ], [ 52.858826611888219, 31.162355570262434 ], [ 52.868106509811071, 31.158929146413925 ], [ 52.877671943054395, 31.15535995490518 ], [ 52.885952467354798, 31.151219692755035 ], [ 52.894741323187759, 31.144452549162338 ], [ 52.89570912273723, 31.143707373835184 ], [ 52.901277061490873, 31.137853899760842 ], [ 52.907558838546151, 31.129430607800202 ], [ 52.914982756884399, 31.114440003463528 ], [ 52.922728695611966, 31.097427578320776 ], [ 52.928439402026015, 31.087433842096232 ], [ 52.933293502477966, 31.079581620777049 ], [ 52.937862067609103, 31.072157702438801 ], [ 52.939860814854001, 31.063591642817698 ], [ 52.941145723797149, 31.055168350857059 ], [ 52.941288491457613, 31.050599785725922 ], [ 52.944551165125915, 31.039681845215284 ], [ 52.949024551816819, 31.03244828375756 ], [ 52.953117224746791, 31.027499004865433 ], [ 52.957495432997518, 31.023787045696395 ], [ 52.965490421977165, 31.019313659005491 ], [ 52.975484158201709, 31.01417402323284 ], [ 52.983725024818511, 31.011350396172475 ], [ 52.994004296363585, 31.008352275305185 ], [ 53.005854012172733, 31.005925225079352 ], [ 53.015847748397221, 31.003926477834455 ], [ 53.023557202056168, 31.002356033570607 ], [ 53.029267656749482, 31.000452107681667 ], [ 53.046173379538402, 30.993849886059991 ], [ 53.077403805239953, 30.975409063264806 ], [ 53.106106053622796, 30.958009254659657 ], [ 53.123254480584933, 30.947891029361699 ], [ 53.136674640657759, 30.941466484646071 ], [ 53.142528114732102, 30.938753899099311 ], [ 53.159089163332681, 30.933471495666424 ], [ 53.169939505519324, 30.928331859893774 ], [ 53.19121188691139, 30.919194729631442 ], [ 53.210670289810992, 30.909832992671056 ], [ 53.233126453053501, 30.900315148647735 ], [ 53.243343502203345, 30.895814781760407 ], [ 53.24561862333411, 30.894812645071738 ], [ 53.257069779424683, 30.890053723060078 ], [ 53.290453437074177, 30.870095152650038 ], [ 53.294165396243329, 30.869238546688052 ], [ 53.314438404012947, 30.859244810463508 ], [ 53.328286867066936, 30.853248568728702 ], [ 53.341421491819005, 30.847537862314823 ], [ 53.353651921389087, 30.841280889337781 ], [ 53.365644404858529, 30.835141879942682 ], [ 53.373639393838005, 30.831144385452944 ], [ 53.382490988779807, 30.827575193944199 ], [ 53.388772765835142, 30.82457707307691 ], [ 53.39334133096628, 30.820294043266301 ], [ 53.400816042685221, 30.81292939964527 ], [ 53.405574964696882, 30.806980747130694 ], [ 53.413903078217288, 30.796719321543094 ], [ 53.422677340676273, 30.782442555508112 ], [ 53.429781953914471, 30.770882510174488 ], [ 53.439430763471648, 30.758218447630782 ], [ 53.447722709184632, 30.749474213969734 ], [ 53.450194728057454, 30.747059683907992 ], [ 53.454205503105868, 30.743142182697795 ], [ 53.462045160870957, 30.73741320202322 ], [ 53.47335235957064, 30.732287271946007 ], [ 53.492558911953267, 30.727347130184228 ], [ 53.51788703704068, 30.722221200107015 ], [ 53.543516687426688, 30.71860289652318 ], [ 53.55886344948658, 30.717183405265473 ], [ 53.586754539612627, 30.715223490824258 ], [ 53.609670462310703, 30.713112813733517 ], [ 53.63786307773529, 30.709494510149682 ], [ 53.655478195835258, 30.706205295540713 ], [ 53.671277816913914, 30.703540299214183 ], [ 53.691646003123935, 30.698781377202522 ], [ 53.707445624202592, 30.696497094636925 ], [ 53.73009809297821, 30.691738172625264 ], [ 53.7532708705603, 30.685862490248155 ], [ 53.775352268694292, 30.679771070073343 ], [ 53.790229848633317, 30.675137069764503 ], [ 53.807927089864165, 30.669931998814263 ], [ 53.820716692770532, 30.665619225741182 ], [ 53.837512293254633, 30.658790473932527 ], [ 53.847462628110407, 30.653815306504669 ], [ 53.858920589459387, 30.646427936687644 ], [ 53.865810178081119, 30.641397443408437 ], [ 53.868418636367096, 30.639492854818513 ], [ 53.884873037525495, 30.624460154337442 ], [ 53.895431895738852, 30.615091026626999 ], [ 53.907626633393761, 30.602747572659268 ], [ 53.920274424990737, 30.587641028363919 ], [ 53.926304930963909, 30.576635354962889 ], [ 53.929923234547744, 30.564574343016545 ], [ 53.932486199586549, 30.552814856368798 ], [ 53.932903785475048, 30.543575276033494 ], [ 53.930943871033833, 30.532720365281705 ], [ 53.927476330099296, 30.51749333769942 ], [ 53.923104213268743, 30.504829275155714 ], [ 53.918882859087489, 30.497743430637286 ], [ 53.912970031737814, 30.488617874073213 ], [ 53.908597914907261, 30.479572115113399 ], [ 53.904376560726064, 30.466305001972501 ], [ 53.901964358336727, 30.452284075584942 ], [ 53.901964358336727, 30.442333740729111 ], [ 53.905281136622023, 30.429820440834703 ], [ 53.910332085123969, 30.416598213846214 ], [ 53.916994575940237, 30.403082875333155 ], [ 53.924799208039417, 30.389186823058992 ], [ 53.929162568453364, 30.376067376095477 ] ] ] ] } }
]
}
